[{"OBJECT_NAME":"HULIANWANG DIGUI-17","OBJECT_ID":"2025-030G","EPOCH":"2026-03-14T21:50:31.324128","MEAN_MOTION":13.29338898,"ECCENTRICITY":8.152e-5,"INCLINATION":50.0052,"RA_OF_ASC_NODE":213.7029,"ARG_OF_PERICENTER":192.4494,"MEAN_ANOMALY":167.6358,"EPHEMERIS_TYPE":0,"CLASSIFICATION_TYPE":"U","NORAD_CAT_ID":62977,"ELEMENT_SET_NO":999,"REV_AT_EPOCH":5332,"BSTAR":6.8144739e-5,"MEAN_MOTION_DOT":-9.2e-7,"MEAN_MOTION_DDOT":0},{"OBJECT_NAME":"HULIANWANG DIGUI-18","OBJECT_ID":"2025-030H","EPOCH":"2026-03-14T21:38:27.844224","MEAN_MOTION":13.29338951,"ECCENTRICITY":8.564e-5,"INCLINATION":50.0056,"RA_OF_ASC_NODE":213.67,"ARG_OF_PERICENTER":194.2983,"MEAN_ANOMALY":165.7865,"EPHEMERIS_TYPE":0,"CLASSIFICATION_TYPE":"U","NORAD_CAT_ID":62978,"ELEMENT_SET_NO":999,"REV_AT_EPOCH":5332,"BSTAR":5.776668e-5,"MEAN_MOTION_DOT":-9.7e-7,"MEAN_MOTION_DDOT":0},{"OBJECT_NAME":"HULIANWANG DIGUI-19","OBJECT_ID":"2025-030J","EPOCH":"2026-03-14T20:37:59.802816","MEAN_MOTION":13.29342103,"ECCENTRICITY":8.706e-5,"INCLINATION":50.0041,"RA_OF_ASC_NODE":214.0672,"ARG_OF_PERICENTER":188.205,"MEAN_ANOMALY":171.8808,"EPHEMERIS_TYPE":0,"CLASSIFICATION_TYPE":"U","NORAD_CAT_ID":62979,"ELEMENT_SET_NO":999,"REV_AT_EPOCH":5331,"BSTAR":4.0072397e-5,"MEAN_MOTION_DOT":-1.05e-6,"MEAN_MOTION_DDOT":0},{"OBJECT_NAME":"HULIANWANG DIGUI-20","OBJECT_ID":"2025-086A","EPOCH":"2026-03-14T21:23:57.235488","MEAN_MOTION":13.24421117,"ECCENTRICITY":0.00019053,"INCLINATION":86.5121,"RA_OF_ASC_NODE":344.8905,"ARG_OF_PERICENTER":90.3525,"MEAN_ANOMALY":269.7827,"EPHEMERIS_TYPE":0,"CLASSIFICATION_TYPE":"U","NORAD_CAT_ID":63687,"ELEMENT_SET_NO":999,"REV_AT_EPOCH":4239,"BSTAR":4.3140291e-5,"MEAN_MOTION_DOT":3.3e-7,"MEAN_MOTION_DDOT":0},{"OBJECT_NAME":"HULIANWANG DIGUI-21","OBJECT_ID":"2025-086B","EPOCH":"2026-03-14T21:34:43.574880","MEAN_MOTION":13.24422698,"ECCENTRICITY":0.00018375,"INCLINATION":86.5149,"RA_OF_ASC_NODE":344.9199,"ARG_OF_PERICENTER":93.8919,"MEAN_ANOMALY":266.2425,"EPHEMERIS_TYPE":0,"CLASSIFICATION_TYPE":"U","NORAD_CAT_ID":63688,"ELEMENT_SET_NO":999,"REV_AT_EPOCH":4238,"BSTAR":4.2457458e-5,"MEAN_MOTION_DOT":3.3e-7,"MEAN_MOTION_DDOT":0},{"OBJECT_NAME":"HULIANWANG DIGUI-22","OBJECT_ID":"2025-086C","EPOCH":"2026-03-14T23:34:24.585600","MEAN_MOTION":13.24422396,"ECCENTRICITY":0.00019706,"INCLINATION":86.5114,"RA_OF_ASC_NODE":344.7918,"ARG_OF_PERICENTER":89.5122,"MEAN_ANOMALY":270.6238,"EPHEMERIS_TYPE":0,"CLASSIFICATION_TYPE":"U","NORAD_CAT_ID":63689,"ELEMENT_SET_NO":999,"REV_AT_EPOCH":4239,"BSTAR":7.2381428e-5,"MEAN_MOTION_DOT":4.6e-7,"MEAN_MOTION_DDOT":0},{"OBJECT_NAME":"HULIANWANG DIGUI-23","OBJECT_ID":"2025-086D","EPOCH":"2026-03-14T22:07:17.807232","MEAN_MOTION":13.24423158,"ECCENTRICITY":0.00018741,"INCLINATION":86.5156,"RA_OF_ASC_NODE":344.9525,"ARG_OF_PERICENTER":86.9834,"MEAN_ANOMALY":273.1515,"EPHEMERIS_TYPE":0,"CLASSIFICATION_TYPE":"U","NORAD_CAT_ID":63690,"ELEMENT_SET_NO":999,"REV_AT_EPOCH":4238,"BSTAR":0.0001076368,"MEAN_MOTION_DOT":6.1e-7,"MEAN_MOTION_DDOT":0},{"OBJECT_NAME":"HULIANWANG DIGUI-24","OBJECT_ID":"2025-086E","EPOCH":"2026-03-14T22:18:16.717824","MEAN_MOTION":13.24421286,"ECCENTRICITY":0.00019544,"INCLINATION":86.5163,"RA_OF_ASC_NODE":344.9772,"ARG_OF_PERICENTER":89.9364,"MEAN_ANOMALY":270.1994,"EPHEMERIS_TYPE":0,"CLASSIFICATION_TYPE":"U","NORAD_CAT_ID":63691,"ELEMENT_SET_NO":999,"REV_AT_EPOCH":4238,"BSTAR":0.00013656679,"MEAN_MOTION_DOT":7.3e-7,"MEAN_MOTION_DDOT":0},{"OBJECT_NAME":"HULIANWANG DIGUI-25","OBJECT_ID":"2025-086F","EPOCH":"2026-03-14T22:29:06.533088","MEAN_MOTION":13.24422746,"ECCENTRICITY":0.00018499,"INCLINATION":86.5102,"RA_OF_ASC_NODE":344.7909,"ARG_OF_PERICENTER":90.734,"MEAN_ANOMALY":269.4006,"EPHEMERIS_TYPE":0,"CLASSIFICATION_TYPE":"U","NORAD_CAT_ID":63692,"ELEMENT_SET_NO":999,"REV_AT_EPOCH":4238,"BSTAR":0.0001190137,"MEAN_MOTION_DOT":6.6e-7,"MEAN_MOTION_DDOT":0},{"OBJECT_NAME":"HULIANWANG DIGUI-26","OBJECT_ID":"2025-086G","EPOCH":"2026-03-14T21:56:19.383072","MEAN_MOTION":13.24422138,"ECCENTRICITY":0.00019814,"INCLINATION":86.515,"RA_OF_ASC_NODE":344.9295,"ARG_OF_PERICENTER":93.9493,"MEAN_ANOMALY":266.1867,"EPHEMERIS_TYPE":0,"CLASSIFICATION_TYPE":"U","NORAD_CAT_ID":63693,"ELEMENT_SET_NO":999,"REV_AT_EPOCH":4238,"BSTAR":8.0181717e-5,"MEAN_MOTION_DOT":4.9e-7,"MEAN_MOTION_DDOT":0},{"OBJECT_NAME":"HULIANWANG DIGUI-27","OBJECT_ID":"2025-086H","EPOCH":"2026-03-14T22:40:07.080096","MEAN_MOTION":13.24421188,"ECCENTRICITY":0.00019474,"INCLINATION":86.5112,"RA_OF_ASC_NODE":344.8237,"ARG_OF_PERICENTER":89.4455,"MEAN_ANOMALY":270.6902,"EPHEMERIS_TYPE":0,"CLASSIFICATION_TYPE":"U","NORAD_CAT_ID":63694,"ELEMENT_SET_NO":999,"REV_AT_EPOCH":4238,"BSTAR":0.0001257049,"MEAN_MOTION_DOT":6.9e-7,"MEAN_MOTION_DDOT":0},{"OBJECT_NAME":"HULIANWANG DIGUI-28","OBJECT_ID":"2025-086J","EPOCH":"2026-03-14T21:12:57.708864","MEAN_MOTION":13.24422425,"ECCENTRICITY":0.0001943,"INCLINATION":86.5076,"RA_OF_ASC_NODE":344.7453,"ARG_OF_PERICENTER":89.1796,"MEAN_ANOMALY":270.956,"EPHEMERIS_TYPE":0,"CLASSIFICATION_TYPE":"U","NORAD_CAT_ID":63695,"ELEMENT_SET_NO":999,"REV_AT_EPOCH":4237,"BSTAR":4.1549319e-5,"MEAN_MOTION_DOT":3.2e-7,"MEAN_MOTION_DDOT":0},{"OBJECT_NAME":"HULIANWANG DIGUI-29","OBJECT_ID":"2025-086K","EPOCH":"2026-03-14T22:50:59.808768","MEAN_MOTION":13.24421324,"ECCENTRICITY":0.00018445,"INCLINATION":86.5104,"RA_OF_ASC_NODE":344.805,"ARG_OF_PERICENTER":91.3547,"MEAN_ANOMALY":268.7798,"EPHEMERIS_TYPE":0,"CLASSIFICATION_TYPE":"U","NORAD_CAT_ID":63696,"ELEMENT_SET_NO":999,"REV_AT_EPOCH":4238,"BSTAR":6.9443439e-5,"MEAN_MOTION_DOT":4.4e-7,"MEAN_MOTION_DDOT":0},{"OBJECT_NAME":"HULIANWANG DIGUI-30","OBJECT_ID":"2025-121A","EPOCH":"2026-03-14T21:12:47.342592","MEAN_MOTION":13.24424014,"ECCENTRICITY":0.00019428,"INCLINATION":86.4965,"RA_OF_ASC_NODE":45.3694,"ARG_OF_PERICENTER":74.4709,"MEAN_ANOMALY":285.6639,"EPHEMERIS_TYPE":0,"CLASSIFICATION_TYPE":"U","NORAD_CAT_ID":64283,"ELEMENT_SET_NO":999,"REV_AT_EPOCH":3767,"BSTAR":6.4691165e-5,"MEAN_MOTION_DOT":4.2e-7,"MEAN_MOTION_DDOT":0},{"OBJECT_NAME":"HULIANWANG DIGUI-31","OBJECT_ID":"2025-121B","EPOCH":"2026-03-14T22:51:03.539520","MEAN_MOTION":13.24420241,"ECCENTRICITY":0.0001971,"INCLINATION":86.4986,"RA_OF_ASC_NODE":45.3988,"ARG_OF_PERICENTER":74.623,"MEAN_ANOMALY":285.5121,"EPHEMERIS_TYPE":0,"CLASSIFICATION_TYPE":"U","NORAD_CAT_ID":64284,"ELEMENT_SET_NO":999,"REV_AT_EPOCH":3768,"BSTAR":0.00011226561,"MEAN_MOTION_DOT":6.3e-7,"MEAN_MOTION_DDOT":0},{"OBJECT_NAME":"HULIANWANG DIGUI-32","OBJECT_ID":"2025-121C","EPOCH":"2026-03-14T22:39:36.461664","MEAN_MOTION":13.24425935,"ECCENTRICITY":0.00019842,"INCLINATION":86.4927,"RA_OF_ASC_NODE":45.2254,"ARG_OF_PERICENTER":76.5301,"MEAN_ANOMALY":283.6054,"EPHEMERIS_TYPE":0,"CLASSIFICATION_TYPE":"U","NORAD_CAT_ID":64285,"ELEMENT_SET_NO":999,"REV_AT_EPOCH":3768,"BSTAR":0.00013783538,"MEAN_MOTION_DOT":7.4e-7,"MEAN_MOTION_DDOT":0}]
