HULIANWANG DIGUI-17     
1 62977U 25030G   26073.91008477 -.00000092  00000+0  68145-4 0  9994
2 62977  50.0052 213.7029 0000815 192.4494 167.6358 13.29338898 53329
HULIANWANG DIGUI-18     
1 62978U 25030H   26073.90171116 -.00000097  00000+0  57767-4 0  9998
2 62978  50.0056 213.6700 0000856 194.2983 165.7865 13.29338951 53329
HULIANWANG DIGUI-19     
1 62979U 25030J   26073.85971994 -.00000105  00000+0  40072-4 0  9996
2 62979  50.0041 214.0672 0000870 188.2050 171.8808 13.29342103 53319
HULIANWANG DIGUI-20     
1 63687U 25086A   26073.89163467  .00000033  00000+0  43140-4 0  9994
2 63687  86.5121 344.8905 0001905  90.3525 269.7827 13.24421117 42392
HULIANWANG DIGUI-21     
1 63688U 25086B   26073.89911545  .00000033  00000+0  42457-4 0  9993
2 63688  86.5149 344.9199 0001837  93.8919 266.2425 13.24422698 42388
HULIANWANG DIGUI-22     
1 63689U 25086C   26073.98222900  .00000046  00000+0  72381-4 0  9997
2 63689  86.5114 344.7918 0001970  89.5122 270.6238 13.24422396 42391
HULIANWANG DIGUI-23     
1 63690U 25086D   26073.92173388  .00000061  00000+0  10764-3 0  9991
2 63690  86.5156 344.9525 0001874  86.9834 273.1515 13.24423158 42381
HULIANWANG DIGUI-24     
1 63691U 25086E   26073.92936016  .00000073  00000+0  13657-3 0  9994
2 63691  86.5163 344.9772 0001954  89.9364 270.1994 13.24421286 42382
HULIANWANG DIGUI-25     
1 63692U 25086F   26073.93688117  .00000066  00000+0  11901-3 0  9994
2 63692  86.5102 344.7909 0001849  90.7340 269.4006 13.24422746 42380
HULIANWANG DIGUI-26     
1 63693U 25086G   26073.91411323  .00000049  00000+0  80182-4 0  9995
2 63693  86.5150 344.9295 0001981  93.9493 266.1867 13.24422138 42389
HULIANWANG DIGUI-27     
1 63694U 25086H   26073.94452639  .00000069  00000+0  12570-3 0  9991
2 63694  86.5112 344.8237 0001947  89.4455 270.6902 13.24421188 42387
HULIANWANG DIGUI-28     
1 63695U 25086J   26073.88400126  .00000032  00000+0  41549-4 0  9998
2 63695  86.5076 344.7453 0001943  89.1796 270.9560 13.24422425 42374
HULIANWANG DIGUI-29     
1 63696U 25086K   26073.95208112  .00000044  00000+0  69443-4 0  9994
2 63696  86.5104 344.8050 0001844  91.3547 268.7798 13.24421324 42386
HULIANWANG DIGUI-30     
1 64283U 25121A   26073.88388128  .00000042  00000+0  64691-4 0  9993
2 64283  86.4965  45.3694 0001942  74.4709 285.6639 13.24424014 37678
HULIANWANG DIGUI-31     
1 64284U 25121B   26073.95212430  .00000063  00000+0  11227-3 0  9993
2 64284  86.4986  45.3988 0001971  74.6230 285.5121 13.24420241 37685
HULIANWANG DIGUI-32     
1 64285U 25121C   26073.94417201  .00000074  00000+0  13784-3 0  9998
2 64285  86.4927  45.2254 0001984  76.5301 283.6054 13.24425935 37689
